[{"OBJECT_NAME":"STARLINK-35412","OBJECT_ID":"2025-218G","EPOCH":"2026-03-09T14:52:34.621824","MEAN_MOTION":15.05646955,"ECCENTRICITY":0.0002332,"INCLINATION":97.602,"RA_OF_ASC_NODE":292.9533,"ARG_OF_PERICENTER":89.3705,"MEAN_ANOMALY":270.7789,"EPHEMERIS_TYPE":0,"CLASSIFICATION_TYPE":"U","NORAD_CAT_ID":65797,"ELEMENT_SET_NO":999,"REV_AT_EPOCH":2496,"BSTAR":0.00030089,"MEAN_MOTION_DOT":4.283e-5,"MEAN_MOTION_DDOT":0},{"OBJECT_NAME":"NAXING 1","OBJECT_ID":"2004-012B","EPOCH":"2026-03-09T22:31:20.183520","MEAN_MOTION":15.05443462,"ECCENTRICITY":0.00121665,"INCLINATION":98.0152,"RA_OF_ASC_NODE":92.9199,"ARG_OF_PERICENTER":69.4128,"MEAN_ANOMALY":290.8402,"EPHEMERIS_TYPE":0,"CLASSIFICATION_TYPE":"U","NORAD_CAT_ID":28221,"ELEMENT_SET_NO":999,"REV_AT_EPOCH":19231,"BSTAR":0.00025838798,"MEAN_MOTION_DOT":3.649e-5,"MEAN_MOTION_DDOT":0}]
